OBJECT_NAME,OBJECT_ID,EPOCH,MEAN_MOTION,ECCENTRICITY,INCLINATION,RA_OF_ASC_NODE,ARG_OF_PERICENTER,MEAN_ANOMALY,EPHEMERIS_TYPE,CLASSIFICATION_TYPE,NORAD_CAT_ID,ELEMENT_SET_NO,REV_AT_EPOCH,BSTAR,MEAN_MOTION_DOT,MEAN_MOTION_DDOT
SHIJIAN-17 (SJ-17),2016-065A,2026-07-11T12:19:47.535168,0.99864039,.0001844,5.8118,72.3091,46.7681,194.9713,0,U,41838,999,3544,0,.95E-6,0
GOES 16,2016-071A,2026-07-11T16:28:57.792000,1.00270883,.00005277,0.3945,85.5118,98.4369,248.1937,0,U,41866,999,3534,0,-.86E-6,0
TIANLIAN 1-04,2016-072A,2026-07-11T17:49:07.626432,1.00270631,.00438982,0.9297,82.7624,90.2153,200.7439,0,U,41869,999,3554,0,.34E-6,0
WGS F8 (USA 272),2016-075A,2026-07-11T13:36:18.070848,1.00269538,.00001561,0.0170,39.3443,140.6965,103.3257,0,U,41879,999,3506,0,-.197E-5,0
FENGYUN 4A,2016-077A,2026-07-11T19:16:44.759712,1.00270074,.00084643,2.3813,80.0102,159.1276,103.5301,0,U,41882,999,3517,0,-.355E-5,0
ECHOSTAR 19,2016-079A,2026-07-11T14:48:29.728800,1.00269792,.00011614,0.0159,50.8154,61.0240,302.6977,0,U,41893,999,3494,0,-.133E-5,0
JCSAT-110A (JCSAT-15),2016-082A,2026-07-11T17:16:35.961888,1.00270096,.00004224,0.0036,96.7589,48.3998,153.6796,0,U,41903,999,3500,0,-.346E-5,0
STAR ONE D1,2016-082B,2026-07-11T13:09:35.382816,1.00266758,.00023503,0.0347,61.8495,66.3539,274.6802,0,U,41904,999,3501,0,0,0
TJS-2,2017-001A,2026-07-11T15:42:46.181088,1.00269896,.00008053,0.8936,85.0010,110.0845,36.7129,0,U,41911,999,3496,0,-.2E-7,0
SBIRS GEO-4 (USA 273),2017-004A,2026-07-11T17:00:52.564608,1.00283122,.00025335,2.2886,43.8883,66.9678,95.5018,0,U,41937,999,3484,0,.13E-5,0
HISPASAT 36W-1,2017-006A,2026-07-11T09:57:56.534688,1.00271441,.00010739,0.0116,294.1240,180.3131,288.3775,0,U,41942,999,3448,0,-.238E-5,0
TELKOM 3S,2017-007A,2026-07-11T17:32:24.228672,1.00272131,.00019955,0.0161,60.5651,47.2080,202.9602,0,U,41944,999,3438,0,-.358E-5,0
INTELSAT 32E (IS-32E),2017-007B,2026-07-11T20:11:46.984128,1.00268953,.0000363,0.0253,37.1915,263.7971,248.5266,0,U,41945,999,3447,0,0,0
ECHOSTAR 23,2017-014A,2026-07-11T14:44:45.087936,1.00269940,.00020319,0.0027,99.7277,7.9379,293.1407,0,U,42070,999,3416,0,-.52E-6,0
WGS F9 (USA 275),2017-016A,2026-07-11T08:41:38.595264,1.00271496,.00004489,0.0231,14.6017,217.9306,175.1636,0,U,42075,999,3413,0,0,0
SES-10,2017-017A,2026-07-11T09:49:04.885248,1.00271217,.00026091,0.0161,41.5240,76.9438,251.2260,0,U,42432,999,3399,0,-.266E-5,0
CHINASAT 16 (SJ-13),2017-018A,2026-07-11T14:41:29.842080,1.00270589,.00050652,0.0922,88.3508,134.4341,37.6422,0,U,42662,999,3399,0,-.347E-5,0
KOREASAT 7,2017-023A,2026-07-11T17:31:54.277248,1.00272966,.00009517,0.0213,45.3930,99.2569,163.8490,0,U,42691,999,3361,0,-.357E-5,0
SGDC,2017-023B,2026-07-11T09:42:13.109760,1.00271640,.00022058,0.0120,49.5404,69.0252,241.4523,0,U,42692,999,3364,0,-.243E-5,0
GSAT-9,2017-024A,2026-07-11T19:01:46.160832,1.00268969,.00023068,0.0783,91.6396,28.8889,191.9029,0,U,42695,999,3354,0,-.281E-5,0
INMARSAT 5-F4,2017-025A,2026-07-11T04:09:38.541600,1.00272143,.0000479,0.0037,112.7637,94.7088,200.5391,0,U,42698,999,3351,0,.82E-6,0
SES-15,2017-026A,2026-07-11T12:56:44.115072,1.00278530,.00008499,0.0255,325.0521,168.0714,221.3537,0,U,42709,999,767,0,.64E-6,0
QZS-2 (MICHIBIKI-2),2017-028A,2026-07-11T10:42:38.710368,1.00277698,.07578692,39.3917,242.7960,269.5570,80.0293,0,U,42738,999,786,0,-.92E-6,0
VIASAT-2,2017-029A,2026-07-11T11:30:53.542368,1.00271622,.00001892,0.0195,304.1380,267.4876,180.6077,0,U,42740,999,3344,0,-.259E-5,0
EUTELSAT 172B,2017-029B,2026-07-11T13:12:38.598336,1.00271687,.00001036,0.0296,132.4641,90.7612,76.3973,0,U,42741,999,3398,0,0,0
GSAT-19,2017-031A,2026-07-11T15:29:51.471168,1.00272075,.00062402,0.0298,87.0819,359.7941,123.0304,0,U,42747,999,3339,0,.13E-5,0
ECHOSTAR 21,2017-032A,2026-07-11T15:19:04.298016,1.00272363,.00019862,1.7704,357.2576,108.5015,63.8112,0,U,42749,999,3334,0,.72E-6,0
BULGARIASAT-1,2017-038A,2026-07-11T15:16:42.024864,1.00270446,.00030559,0.0051,350.7817,127.3798,42.4508,0,U,42801,999,3309,0,.16E-6,0
HELLAS-SAT 3,2017-040A,2026-07-11T13:44:17.056896,1.00269400,.00032359,0.0422,40.2776,34.3492,99.9195,0,U,42814,999,3305,0,.158E-5,0
GSAT-17,2017-040B,2026-07-11T17:25:32.386656,1.00271641,.00022013,0.0631,88.4873,169.1428,26.8770,0,U,42815,999,3303,0,-.253E-5,0
INTELSAT 35E (IS-35E),2017-041A,2026-07-11T16:48:55.878336,1.00270123,.00015927,0.0183,37.4055,72.0948,37.8427,0,U,42818,999,3306,0,-.233E-5,0
COSMOS 2520,2017-046A,2026-07-11T16:43:13.924416,1.00269727,.00006262,0.0369,105.7301,358.7713,120.8888,0,U,42907,999,3264,0,.142E-5,0
