SHIJIAN-17 (SJ-17)      
1 41838U 16065A   26192.51374462  .00000095  00000+0  00000+0 0  9996
2 41838   5.8118  72.3091 0001844  46.7681 194.9713  0.99864039 35448
GOES 16                 
1 41866U 16071A   26192.68678000 -.00000086  00000+0  00000+0 0  9998
2 41866   0.3945  85.5118 0000527  98.4369 248.1937  1.00270883 35347
TIANLIAN 1-04           
1 41869U 16072A   26192.74244938  .00000034  00000+0  00000+0 0  9990
2 41869   0.9297  82.7624 0043898  90.2153 200.7439  1.00270631 35540
WGS F8 (USA 272)        
1 41879U 16075A   26192.56687582 -.00000197  00000+0  00000+0 0  9991
2 41879   0.0170  39.3443 0000156 140.6965 103.3257  1.00269538 35067
FENGYUN 4A              
1 41882U 16077A   26192.80329583 -.00000355  00000+0  00000+0 0  9994
2 41882   2.3813  80.0102 0008464 159.1276 103.5301  1.00270074 35176
ECHOSTAR 19             
1 41893U 16079A   26192.61701075 -.00000133  00000+0  00000+0 0  9991
2 41893   0.0159  50.8154 0001161  61.0240 302.6977  1.00269792 34947
JCSAT-110A (JCSAT-15)   
1 41903U 16082A   26192.71986067 -.00000346  00000+0  00000+0 0  9990
2 41903   0.0036  96.7589 0000422  48.3998 153.6796  1.00270096 35001
STAR ONE D1             
1 41904U 16082B   26192.54832619  .00000000  00000+0  00000+0 0  9991
2 41904   0.0347  61.8495 0002350  66.3539 274.6802  1.00266758 35012
TJS-2                   
1 41911U 17001A   26192.65470117 -.00000002  00000+0  00000+0 0  9997
2 41911   0.8936  85.0010 0000805 110.0845  36.7129  1.00269896 34961
SBIRS GEO-4 (USA 273)   
1 41937U 17004A   26192.70894172  .00000130  00000+0  00000+0 0  9996
2 41937   2.2886  43.8883 0002533  66.9678  95.5018  1.00283122 34847
HISPASAT 36W-1          
1 41942U 17006A   26192.41523767 -.00000238  00000+0  00000+0 0  9991
2 41942   0.0116 294.1240 0001073 180.3131 288.3775  1.00271441 34489
TELKOM 3S               
1 41944U 17007A   26192.73083598 -.00000358  00000+0  00000+0 0  9995
2 41944   0.0161  60.5651 0001995  47.2080 202.9602  1.00272131 34386
INTELSAT 32E (IS-32E)   
1 41945U 17007B   26192.84151602  .00000000  00000+0  00000+0 0  9993
2 41945   0.0253  37.1915 0000363 263.7971 248.5266  1.00268953 34473
ECHOSTAR 23             
1 42070U 17014A   26192.61441074 -.00000052  00000+0  00000+0 0  9999
2 42070   0.0027  99.7277 0002031   7.9379 293.1407  1.00269940 34167
WGS F9 (USA 275)        
1 42075U 17016A   26192.36225226  .00000000  00000+0  00000+0 0  9999
2 42075   0.0231  14.6017 0000448 217.9306 175.1636  1.00271496 34139
SES-10                  
1 42432U 17017A   26192.40908432 -.00000266  00000+0  00000+0 0  9994
2 42432   0.0161  41.5240 0002609  76.9438 251.2260  1.00271217 33998
CHINASAT 16 (SJ-13)     
1 42662U 17018A   26192.61215095 -.00000347  00000+0  00000+0 0  9999
2 42662   0.0922  88.3508 0005065 134.4341  37.6422  1.00270589 33993
KOREASAT 7              
1 42691U 17023A   26192.73048932 -.00000357  00000+0  00000+0 0  9995
2 42691   0.0213  45.3930 0000951  99.2569 163.8490  1.00272966 33616
SGDC                    
1 42692U 17023B   26192.40431840 -.00000243  00000+0  00000+0 0  9998
2 42692   0.0120  49.5404 0002205  69.0252 241.4523  1.00271640 33645
GSAT-9                  
1 42695U 17024A   26192.79289538 -.00000281  00000+0  00000+0 0  9991
2 42695   0.0783  91.6396 0002306  28.8889 191.9029  1.00268969 33541
INMARSAT 5-F4           
1 42698U 17025A   26192.17336275  .00000082  00000+0  00000+0 0  9996
2 42698   0.0037 112.7637 0000479  94.7088 200.5391  1.00272143 33516
SES-15                  
1 42709U 17026A   26192.53939948  .00000064  00000+0  00000+0 0  9996
2 42709   0.0255 325.0521 0000849 168.0714 221.3537  1.00278530  7671
QZS-2 (MICHIBIKI-2)     
1 42738U 17028A   26192.44628137 -.00000092  00000+0  00000+0 0  9997
2 42738  39.3917 242.7960 0757869 269.5570  80.0293  1.00277698  7867
VIASAT-2                
1 42740U 17029A   26192.47978637 -.00000259  00000+0  00000+0 0  9992
2 42740   0.0195 304.1380 0000189 267.4876 180.6077  1.00271622 33445
EUTELSAT 172B           
1 42741U 17029B   26192.55044674  .00000000  00000+0  00000+0 0  9990
2 42741   0.0296 132.4641 0000103  90.7612  76.3973  1.00271687 33987
GSAT-19                 
1 42747U 17031A   26192.64573462  .00000130  00000+0  00000+0 0  9995
2 42747   0.0298  87.0819 0006240 359.7941 123.0304  1.00272075 33393
ECHOSTAR 21             
1 42749U 17032A   26192.63824419  .00000072  00000+0  00000+0 0  9993
2 42749   1.7704 357.2576 0001986 108.5015  63.8112  1.00272363 33344
BULGARIASAT-1           
1 42801U 17038A   26192.63659751  .00000016  00000+0  00000+0 0  9991
2 42801   0.0051 350.7817 0003055 127.3798  42.4508  1.00270446 33096
HELLAS-SAT 3            
1 42814U 17040A   26192.57241964  .00000158  00000+0  00000+0 0  9991
2 42814   0.0422  40.2776 0003235  34.3492  99.9195  1.00269400 33058
GSAT-17                 
1 42815U 17040B   26192.72606929 -.00000253  00000+0  00000+0 0  9992
2 42815   0.0631  88.4873 0002201 169.1428  26.8770  1.00271641 33037
INTELSAT 35E (IS-35E)   
1 42818U 17041A   26192.70064674 -.00000233  00000+0  00000+0 0  9997
2 42818   0.0183  37.4055 0001592  72.0948  37.8427  1.00270123 33067
COSMOS 2520             
1 42907U 17046A   26192.69668894  .00000142  00000+0  00000+0 0  9991
2 42907   0.0369 105.7301 0000626 358.7713 120.8888  1.00269727 32641
